SENTINEL-2A             
1 40697U 15028A   26197.30560848  .00000068  00000+0  42683-4 0  9991
2 40697  98.5682 271.7425 0001290  94.8749 265.2581 14.30814775577892
SENTINEL-2B             
1 42063U 17013A   26197.29841890  .00000002  00000+0  17592-4 0  9992
2 42063  98.5690 271.6607 0001208  90.4508 269.6814 14.30815310488800
SENTINEL-2C             
1 60989U 24157A   26197.19353895  .00000045  00000+0  33946-4 0  9996
2 60989  98.5685 271.5638 0000970 103.9825 256.1466 14.30815821 97134
